EYESAT A (AO-27)        
1 22825U 93061C   26201.14366892  .00000026  00000+0  26830-4 0  9998
2 22825  98.6863 268.5424 0008473  11.8665 348.2716 14.30949875711719
ITAMSAT (IO-26)         
1 22826U 93061D   26201.11324308  .00000018  00000+0  23786-4 0  9990
2 22826  98.6812 268.4329 0008660 354.6993   5.4097 14.31377545712026
RADIO ROSTO (RS15)      
1 23439U 94085A   26201.10832059 -.00000051  00000+0 -25356-3 0  9997
2 23439  64.8145 249.9747 0157105 357.8021   2.2196 11.27583634299615
JAS-2 (FO-29)           
1 24278U 96046B   26201.13722782 -.00000049  00000+0 -13216-4 0  9992
2 24278  98.5218  45.4924 0350123  11.1325 349.7313 13.53275824477629
FORTE                   
1 24920U 97047A   26201.01785518  .00000053  00000+0  44674-4 0  9996
2 24920  69.9544 299.8642 0024228 237.5036 122.3745 14.27956603503375
TECHSAT 1B (GO-32)      
1 25397U 98043D   26201.21901481  .00000014  00000+0  26364-4 0  9996
2 25397  99.0089 194.8138 0002305 107.1478 252.9953 14.24433954456037
ISS (ZARYA)             
1 25544U 98067A   26201.08882182  .00004577  00000+0  91000-4 0  9994
2 25544  51.6315 137.2714 0006813 316.7062  43.3390 15.49056873576852
IMAGE                   
1 26113U 00017A   26191.39817865 -.00000042  00000+0  00000+0 0  9992
2 26113  94.2468 315.6762 7416054 285.1805   9.7435  1.68666826161896
CLUSTER II-FM7 (SAMBA)  
1 26410U 00041A   26201.60182196  .00010308 -30415-5  00000+0 0  9992
2 26410 149.8020  56.9135 9091714 274.4939 359.4480  0.44850593 20460
CLUSTER II-FM8 (TANGO)  
1 26464U 00045B   26199.95355120  .00014903 -89736-5  00000+0 0  9993
2 26464 150.0065  57.8200 9095390 275.2268   2.0610  0.44421506 20456
ODIN                    
1 26702U 01007A   26201.08652123  .00328733  43055-4  97864-3 0  9997
2 26702  97.3670 244.4948 0005124 155.1636 204.9886 15.92415357394606
OMNI-M1                 
1 26857U 01026A   26196.51065422  .00000004  00000+0  00000+0 0  9998
2 26857  44.8240 238.7352 0013528  57.8922 302.2996  3.92402085206680
PCSAT (NO-44)           
1 26931U 01043C   26201.12621364  .00000039  00000+0  45495-4 0  9997
2 26931  67.0499 159.0756 0005868 266.9359  93.1071 14.31966145295162
PROBA-1                 
1 26958U 01049B   26201.25694542  .00000457  00000+0  33643-4 0  9990
2 26958  97.9603 210.9475 0055180  12.7843 347.4769 15.07622811348602
SAUDISAT 1C (SO-50)     
1 27607U 02058C   26200.92670931  .00000394  00000+0  64508-4 0  9996
2 27607  64.5521  27.6843 0074380 256.4147 102.8667 14.83103564269314
CORIOLIS                
1 27640U 03001A   26201.24519807  .00000042  00000+0  40098-4 0  9990
2 27640  98.7137 207.6264 0015098 115.7333 244.5404 14.19952733218917
CUTE-1 (CO-55)          
1 27844U 03031E   26201.26425805  .00000144  00000+0  81134-4 0  9994
2 27844  98.6745 209.4081 0010867  89.7034 270.5390 14.24353468196386
CUBESAT XI-IV (CO-57)   
1 27848U 03031J   26200.98821655  .00000102  00000+0  63799-4 0  9990
2 27848  98.6776 208.8216 0010677 106.9175 253.3176 14.23636063196042
MOZHAETS 4 (RS22)       
1 27939U 03042A   26201.30365373  .00000115  00000+0  25931-4 0  9990
2 27939  98.3482  26.6000 0011656 157.2918  15.7654 14.73517665220425
